{
  "type": "FeatureCollection",
  "features": [
    {
      "type": "Feature",
      "properties": {
        "norad_id": 2807,
        "name": "OPS 7218 (TRANSIT 16)",
        "group": "nnss",
        "lat": -63.2904728323023,
        "lon": -6.807714634240824,
        "alt_km": 1092.646208749643,
        "timestamp": "2025-12-17T23:38:07.122434+00:00",
        "meta_object_name": "OPS 7218 (TRANSIT 16)",
        "meta_object_id": "1967-048A",
        "meta_epoch": "2025-12-17T13:52:55.920864",
        "meta_mean_motion": 13.50723226,
        "meta_eccentricity": 0.0022105,
        "meta_inclination": 89.6731,
        "meta_ra_of_asc_node": 353.8558,
        "meta_arg_of_pericenter": 101.1677,
        "meta_mean_anomaly": 20.7822,
        "meta_ephemeris_type": 0,
        "meta_classification_type": "U",
        "meta_norad_cat_id": 2807,
        "meta_element_set_no": 999,
        "meta_rev_at_epoch": 88341,
        "meta_bstar": 0.00016543723,
        "meta_mean_motion_dot": 1.17e-06,
        "meta_mean_motion_ddot": 0,
        "tle_line1": "1 02807U 67048A   25351.57842501  .00000117  00000+0  16544-3 0  9991",
        "tle_line2": "2 02807  89.6731 353.8558 0022105 101.1677  20.7822 13.50723226883419"
      },
      "geometry": {
        "type": "Point",
        "coordinates": [
          -6.807714634240824,
          -63.2904728323023
        ]
      }
    },
    {
      "type": "Feature",
      "properties": {
        "norad_id": 2965,
        "name": "OPS 4947 (TRANSIT 17)",
        "group": "nnss",
        "lat": 52.63987390089361,
        "lon": 25.019823222224225,
        "alt_km": 1088.2979445646533,
        "timestamp": "2025-12-17T23:38:07.122455+00:00",
        "meta_object_name": "OPS 4947 (TRANSIT 17)",
        "meta_object_id": "1967-092A",
        "meta_epoch": "2025-12-17T15:03:47.415168",
        "meta_mean_motion": 13.53454756,
        "meta_eccentricity": 0.00465017,
        "meta_inclination": 89.2492,
        "meta_ra_of_asc_node": 24.0629,
        "meta_arg_of_pericenter": 219.9085,
        "meta_mean_anomaly": 253.6669,
        "meta_ephemeris_type": 0,
        "meta_classification_type": "U",
        "meta_norad_cat_id": 2965,
        "meta_element_set_no": 999,
        "meta_rev_at_epoch": 87163,
        "meta_bstar": 0.00020654149,
        "meta_mean_motion_dot": 1.51e-06,
        "meta_mean_motion_ddot": 0,
        "tle_line1": "1 02965U 67092A   25351.62763212  .00000151  00000+0  20654-3 0  9997",
        "tle_line2": "2 02965  89.2492  24.0629 0046501 219.9085 253.6669 13.53454756871636"
      },
      "geometry": {
        "type": "Point",
        "coordinates": [
          25.019823222224225,
          52.63987390089361
        ]
      }
    },
    {
      "type": "Feature",
      "properties": {
        "norad_id": 3133,
        "name": "OPS 7034 (TRANSIT 18)",
        "group": "nnss",
        "lat": 13.289241340019394,
        "lon": 93.66042667385496,
        "alt_km": 1013.5594804642406,
        "timestamp": "2025-12-17T23:38:07.122468+00:00",
        "meta_object_name": "OPS 7034 (TRANSIT 18)",
        "meta_object_id": "1968-012A",
        "meta_epoch": "2025-12-17T13:00:32.508288",
        "meta_mean_motion": 13.51566773,
        "meta_eccentricity": 0.00743168,
        "meta_inclination": 90.0282,
        "meta_ra_of_asc_node": 273.6525,
        "meta_arg_of_pericenter": 155.2679,
        "meta_mean_anomaly": 18.1119,
        "meta_ephemeris_type": 0,
        "meta_classification_type": "U",
        "meta_norad_cat_id": 3133,
        "meta_element_set_no": 999,
        "meta_rev_at_epoch": 56983,
        "meta_bstar": 0.00013716006,
        "meta_mean_motion_dot": 1.01e-06,
        "meta_mean_motion_ddot": 0,
        "tle_line1": "1 03133U 68012A   25351.54204292  .00000101  00000+0  13716-3 0  9993",
        "tle_line2": "2 03133  90.0282 273.6525 0074316 155.2679  18.1119 13.51566773569835"
      },
      "geometry": {
        "type": "Point",
        "coordinates": [
          93.66042667385496,
          13.289241340019394
        ]
      }
    },
    {
      "type": "Feature",
      "properties": {
        "norad_id": 4507,
        "name": "NNSS 19 (TRANSIT 19)",
        "group": "nnss",
        "lat": 47.88496818061764,
        "lon": 54.54322562927071,
        "alt_km": 1167.6653364274443,
        "timestamp": "2025-12-17T23:38:07.122480+00:00",
        "meta_object_name": "NNSS 19 (TRANSIT 19)",
        "meta_object_id": "1970-067A",
        "meta_epoch": "2025-12-17T15:51:38.500992",
        "meta_mean_motion": 13.51316069,
        "meta_eccentricity": 0.01703065,
        "meta_inclination": 90.0052,
        "meta_ra_of_asc_node": 234.5373,
        "meta_arg_of_pericenter": 278.9868,
        "meta_mean_anomaly": 79.2043,
        "meta_ephemeris_type": 0,
        "meta_classification_type": "U",
        "meta_norad_cat_id": 4507,
        "meta_element_set_no": 999,
        "meta_rev_at_epoch": 72288,
        "meta_bstar": 0.00012275119,
        "meta_mean_motion_dot": 9.5e-07,
        "meta_mean_motion_ddot": 0,
        "tle_line1": "1 04507U 70067A   25351.66086228  .00000095  00000+0  12275-3 0  9993",
        "tle_line2": "2 04507  90.0052 234.5373 0170306 278.9868  79.2043 13.51316069722883"
      },
      "geometry": {
        "type": "Point",
        "coordinates": [
          54.54322562927071,
          47.88496818061764
        ]
      }
    },
    {
      "type": "Feature",
      "properties": {
        "norad_id": 6909,
        "name": "NNSS 20 (TRANSIT 20)",
        "group": "nnss",
        "lat": -45.80023433125927,
        "lon": 75.12349252555062,
        "alt_km": 1111.4228600116094,
        "timestamp": "2025-12-17T23:38:07.122491+00:00",
        "meta_object_name": "NNSS 20 (TRANSIT 20)",
        "meta_object_id": "1973-081A",
        "meta_epoch": "2025-12-17T15:32:38.943744",
        "meta_mean_motion": 13.71436654,
        "meta_eccentricity": 0.01565271,
        "meta_inclination": 89.8562,
        "meta_ra_of_asc_node": 254.9806,
        "meta_arg_of_pericenter": 63.7867,
        "meta_mean_anomaly": 297.9293,
        "meta_ephemeris_type": 0,
        "meta_classification_type": "U",
        "meta_norad_cat_id": 6909,
        "meta_element_set_no": 999,
        "meta_rev_at_epoch": 80428,
        "meta_bstar": 0.00023255547,
        "meta_mean_motion_dot": 2.4e-06,
        "meta_mean_motion_ddot": 0,
        "tle_line1": "1 06909U 73081A   25351.64767296  .00000240  00000+0  23256-3 0  9992",
        "tle_line2": "2 06909  89.8562 254.9806 0156527  63.7867 297.9293 13.71436654804284"
      },
      "geometry": {
        "type": "Point",
        "coordinates": [
          75.12349252555062,
          -45.80023433125927
        ]
      }
    },
    {
      "type": "Feature",
      "properties": {
        "norad_id": 10457,
        "name": "TRANSAT",
        "group": "nnss",
        "lat": 86.84284179357334,
        "lon": -107.98558832132044,
        "alt_km": 1065.7084721847468,
        "timestamp": "2025-12-17T23:38:07.122502+00:00",
        "meta_object_name": "TRANSAT",
        "meta_object_id": "1977-106A",
        "meta_epoch": "2025-12-17T07:28:04.452096",
        "meta_mean_motion": 13.48944277,
        "meta_eccentricity": 0.00258313,
        "meta_inclination": 89.6481,
        "meta_ra_of_asc_node": 78.4352,
        "meta_arg_of_pericenter": 176.3254,
        "meta_mean_anomaly": 247.7021,
        "meta_ephemeris_type": 0,
        "meta_classification_type": "U",
        "meta_norad_cat_id": 10457,
        "meta_element_set_no": 999,
        "meta_rev_at_epoch": 36805,
        "meta_bstar": 9.3572407e-05,
        "meta_mean_motion_dot": 6.9e-07,
        "meta_mean_motion_ddot": 0,
        "tle_line1": "1 10457U 77106A   25351.31116264  .00000069  00000+0  93572-4 0  9992",
        "tle_line2": "2 10457  89.6481  78.4352 0025831 176.3254 247.7021 13.48944277368055"
      },
      "geometry": {
        "type": "Point",
        "coordinates": [
          -107.98558832132044,
          86.84284179357334
        ]
      }
    },
    {
      "type": "Feature",
      "properties": {
        "norad_id": 12458,
        "name": "NOVA 1",
        "group": "nnss",
        "lat": -51.19252426662734,
        "lon": -88.50583193645032,
        "alt_km": 1188.4160805214615,
        "timestamp": "2025-12-17T23:38:07.122513+00:00",
        "meta_object_name": "NOVA 1",
        "meta_object_id": "1981-044A",
        "meta_epoch": "2025-12-17T08:15:53.403840",
        "meta_mean_motion": 13.23278916,
        "meta_eccentricity": 0.00158995,
        "meta_inclination": 89.8528,
        "meta_ra_of_asc_node": 91.3201,
        "meta_arg_of_pericenter": 92.684,
        "meta_mean_anomaly": 329.1679,
        "meta_ephemeris_type": 0,
        "meta_classification_type": "U",
        "meta_norad_cat_id": 12458,
        "meta_element_set_no": 999,
        "meta_rev_at_epoch": 15247,
        "meta_bstar": 6.6740266e-05,
        "meta_mean_motion_dot": 3.7e-07,
        "meta_mean_motion_ddot": 0,
        "tle_line1": "1 12458U 81044A   25351.34436810  .00000037  00000+0  66740-4 0  9998",
        "tle_line2": "2 12458  89.8528  91.3201 0015899  92.6840 329.1679 13.23278916152477"
      },
      "geometry": {
        "type": "Point",
        "coordinates": [
          -88.50583193645032,
          -51.19252426662734
        ]
      }
    }
  ]
}